{
    "links": {
        "self": "http://www.neowsapp.com/rest/v1/neo/54095166?api_key=iIulBulltgU6a56xZRHN4H3l9WmuAYTsLGpBGhQ2"
    },
    "id": "54095166",
    "neo_reference_id": "54095166",
    "name": "(2020 WP4)",
    "designation": "2020 WP4",
    "nasa_jpl_url": "http://ssd.jpl.nasa.gov/sbdb.cgi?sstr=54095166",
    "absolute_magnitude_h": 22.045,
    "estimated_diameter": {
        "kilometers": {
            "estimated_diameter_min": 0.1036465801,
            "estimated_diameter_max": 0.2317607986
        },
        "meters": {
            "estimated_diameter_min": 103.6465800586,
            "estimated_diameter_max": 231.7607986465
        },
        "miles": {
            "estimated_diameter_min": 0.0644029791,
            "estimated_diameter_max": 0.1440094392
        },
        "feet": {
            "estimated_diameter_min": 340.0478457195,
            "estimated_diameter_max": 760.3700986313
        }
    },
    "is_potentially_hazardous_asteroid": false,
    "close_approach_data": [
        {
            "close_approach_date": "2020-11-11",
            "close_approach_date_full": "2020-Nov-11 14:09",
            "epoch_date_close_approach": 1605103740000,
            "relative_velocity": {
                "kilometers_per_second": "11.8489592445",
                "kilometers_per_hour": "42656.2532801215",
                "miles_per_hour": "26504.9369339733"
            },
            "miss_distance": {
                "astronomical": "0.029018115",
                "lunar": "11.288046735",
                "kilometers": "4341048.19541505",
                "miles": "2697402.26842569"
            },
            "orbiting_body": "Earth"
        },
        {
            "close_approach_date": "2115-07-11",
            "close_approach_date_full": "2115-Jul-11 21:19",
            "epoch_date_close_approach": 4592323140000,
            "relative_velocity": {
                "kilometers_per_second": "22.1125715023",
                "kilometers_per_hour": "79605.257408374",
                "miles_per_hour": "49463.6111935533"
            },
            "miss_distance": {
                "astronomical": "0.4207258001",
                "lunar": "163.6623362389",
                "kilometers": "62939683.549005787",
                "miles": "39108905.8532903806"
            },
            "orbiting_body": "Earth"
        },
        {
            "close_approach_date": "2198-12-16",
            "close_approach_date_full": "2198-Dec-16 07:46",
            "epoch_date_close_approach": 7225227960000,
            "relative_velocity": {
                "kilometers_per_second": "24.4708339499",
                "kilometers_per_hour": "88095.0022194733",
                "miles_per_hour": "54738.8084624277"
            },
            "miss_distance": {
                "astronomical": "0.4429685563",
                "lunar": "172.3147684007",
                "kilometers": "66267152.499455081",
                "miles": "41176499.1835228778"
            },
            "orbiting_body": "Earth"
        }
    ],
    "orbital_data": {
        "orbit_id": "10",
        "orbit_determination_date": "2020-12-07 05:26:55",
        "first_observation_date": "2020-11-23",
        "last_observation_date": "2020-12-07",
        "data_arc_in_days": 14,
        "observations_used": 152,
        "orbit_uncertainty": "8",
        "minimum_orbit_intersection": ".0280489",
        "jupiter_tisserand_invariant": "3.966",
        "epoch_osculation": "2459180.5",
        "eccentricity": ".4954072994372727",
        "semi_major_axis": "1.749658900763094",
        "inclination": "10.06666367806381",
        "ascending_node_longitude": "42.62761919611707",
        "orbital_period": "845.3343416331667",
        "perihelion_distance": ".8828651097996623",
        "perihelion_argument": "323.6251422545154",
        "aphelion_distance": "2.616452691726525",
        "perihelion_time": "2459133.049196831952",
        "mean_anomaly": "20.2077311889337",
        "mean_motion": ".4258669999192133",
        "equinox": "J2000",
        "orbit_class": {
            "orbit_class_type": "APO",
            "orbit_class_description": "Near-Earth asteroid orbits which cross the Earth’s orbit similar to that of 1862 Apollo",
            "orbit_class_range": "a (semi-major axis) > 1.0 AU; q (perihelion) < 1.017 AU"
        }
    },
    "is_sentry_object": false
}